[{"OBJECT_NAME":"HULIANWANG DIGUI-36","OBJECT_ID":"2025-159B","EPOCH":"2026-03-09T23:27:14.066496","MEAN_MOTION":13.24420266,"ECCENTRICITY":0.00013137,"INCLINATION":86.4995,"RA_OF_ASC_NODE":316.0074,"ARG_OF_PERICENTER":74.9698,"MEAN_ANOMALY":285.1582,"EPHEMERIS_TYPE":0,"CLASSIFICATION_TYPE":"U","NORAD_CAT_ID":64957,"ELEMENT_SET_NO":999,"REV_AT_EPOCH":2999,"BSTAR":6.156279e-5,"MEAN_MOTION_DOT":4.1e-7,"MEAN_MOTION_DDOT":0},{"OBJECT_NAME":"FENGYUN 1C DEB","OBJECT_ID":"1999-025EUM","EPOCH":"2026-03-08T12:30:14.445792","MEAN_MOTION":13.61727451,"ECCENTRICITY":0.02467864,"INCLINATION":99.4778,"RA_OF_ASC_NODE":322.9968,"ARG_OF_PERICENTER":2.4273,"MEAN_ANOMALY":357.8006,"EPHEMERIS_TYPE":0,"CLASSIFICATION_TYPE":"U","NORAD_CAT_ID":38797,"ELEMENT_SET_NO":999,"REV_AT_EPOCH":60450,"BSTAR":0.00097284184,"MEAN_MOTION_DOT":8.71e-6,"MEAN_MOTION_DDOT":0}]
